0 WESTFORD NEEDLES
1 02361U 63014L   13282.42568231  .00000055  00000-0  22089-1 0  7948
2 02361 087.3190 261.3056 0459608 289.1927 237.4756 08.66383369594021
0 WESTFORD NEEDLES
1 02361U 63014L   13285.42700043 -.00000020  00000-0 -92133-2 0  7953
2 02361 087.3206 261.0151 0458717 286.1926 238.4670 08.66384044594283
0 WESTFORD NEEDLES
1 02361U 63014L   13286.88096931 -.00000033  00000-0 -14425-1 0  7960
2 02361 087.3211 260.8744 0458014 284.7637 093.3126 08.66384060594414
0 WESTFORD NEEDLES
1 02361U 63014L   13290.39189149 -.00000007  00000-0 -37295-2 0  7978
2 02361 087.3157 260.5305 0456334 281.2903 243.7076 08.66383286594711
0 WESTFORD NEEDLES
1 02361U 63014L   13293.39389192  .00000015  00000-0  54646-2 0  7988
2 02361 087.3173 260.2415 0455451 278.2722 246.8502 08.66382792594979
0 WESTFORD NEEDLES
1 02361U 63014L   13293.86031242  .00000054  00000-0  22102-1 0  7995
2 02361 087.3227 260.1990 0454088 277.8486 261.5603 08.66385074595011
0 WESTFORD NEEDLES
1 02361U 63014L   13295.35674965  .00000039  00000-0  15836-1 0  8008
2 02361 087.3220 260.0549 0455425 276.2495 248.9986 08.66383740595147
